[
  {
    "name": "KUIPER-00230",
    "noradId": "68579",
    "line1": "1 68579U 26072G   26165.33001000  .00026350  00000+0  70446-3 0  9998",
    "line2": "2 68579  51.8760 190.5434 0003326  25.6036 334.5115 15.37883587 10947"
  },
  {
    "name": "KUIPER-00231",
    "noradId": "68580",
    "line1": "1 68580U 26072H   26165.26053720  .00025355  00000+0  67995-3 0  9997",
    "line2": "2 68580  51.8735 190.8204 0003249  35.1817 324.9384 15.37810846 10934"
  },
  {
    "name": "KUIPER-00234",
    "noradId": "68581",
    "line1": "1 68581U 26072J   26165.25552199  .00001632  00000+0  26252-3 0  9994",
    "line2": "2 68581  51.8981 202.8762 0001493 159.9323 200.1697 14.76532777 10766"
  },
  {
    "name": "KUIPER-00236",
    "noradId": "68582",
    "line1": "1 68582U 26072K   26165.27760378  .00030830  00000+0  83324-3 0  9992",
    "line2": "2 68582  51.8749 190.9417 0003708  16.8075 343.3034 15.37461502 10938"
  },
  {
    "name": "KUIPER-00244",
    "noradId": "68583",
    "line1": "1 68583U 26072L   26165.25002315 -.00034237  00000+0 -31093-2 0  9993",
    "line2": "2 68583  51.8967 193.8569 0004424  29.6484 284.7068 14.94756880  4580"
  },
  {
    "name": "KUIPER-00253",
    "noradId": "68584",
    "line1": "1 68584U 26072M   26165.25002315 -.00065959  00000+0 -77137-2 0  9998",
    "line2": "2 68584  51.8999 196.2461 0009822  50.9828 350.3992 14.84918082  5502"
  },
  {
    "name": "KUIPER-00254",
    "noradId": "68585",
    "line1": "1 68585U 26072N   26165.25002315 -.00029461  00000+0 -38531-2 0  9992",
    "line2": "2 68585  51.9010 198.6439 0001452  34.3791 250.1460 14.79924848  5266"
  },
  {
    "name": "KUIPER-00263",
    "noradId": "68586",
    "line1": "1 68586U 26072P   26165.25665163  .00028725  00000+0  75872-3 0  9999",
    "line2": "2 68586  51.8757 190.8021 0002077  14.4544 345.6502 15.38211538 10932"
  },
  {
    "name": "KUIPER-00269",
    "noradId": "68587",
    "line1": "1 68587U 26072Q   26165.25002315 -.00039450  00000+0 -12755-2 0  9993",
    "line2": "2 68587  51.8766 190.9622 0006178   7.0968 255.8520 15.31413303  5095"
  },
  {
    "name": "KUIPER-00272",
    "noradId": "68588",
    "line1": "1 68588U 26072R   26165.28991620  .00002324  00000+0  33373-3 0  9991",
    "line2": "2 68588  51.8971 205.9550 0000857  52.7272 307.3769 14.79935089 10729"
  },
  {
    "name": "KUIPER-00285",
    "noradId": "68589",
    "line1": "1 68589U 26072S   26165.25002315 -.01052982  00000+0 -40281-1 0  9995",
    "line2": "2 68589  51.8776 191.0137 0007478  16.2689 194.5584 15.28843329  5884"
  },
  {
    "name": "KUIPER-00286",
    "noradId": "68590",
    "line1": "1 68590U 26072T   26165.25928538  .00022177  00000+0  60476-3 0  9991",
    "line2": "2 68590  51.8740 190.8080 0005093   1.9740 358.1266 15.37366831 10936"
  },
  {
    "name": "KUIPER-00289",
    "noradId": "68591",
    "line1": "1 68591U 26072U   26165.25002315 -.01754263  00000+0 -11600+0 0  9990",
    "line2": "2 68591  51.8800 192.9407 0012201  30.6677 255.6153 15.10164180  4727"
  },
  {
    "name": "KUIPER-00290",
    "noradId": "68592",
    "line1": "1 68592U 26072V   26165.25002315 -.00025416  00000+0 -14030-2 0  9994",
    "line2": "2 68592  51.8820 192.8240 0012617  20.3340  45.8901 15.13100962  1300"
  },
  {
    "name": "KUIPER-00293",
    "noradId": "68593",
    "line1": "1 68593U 26072W   26164.82253007  .00002146  00000+0  31008-3 0  9991",
    "line2": "2 68593  51.8963 203.0235 0003663  47.2577 312.8693 14.79982415 10722"
  },
  {
    "name": "KUIPER-00294",
    "noradId": "68594",
    "line1": "1 68594U 26072X   26165.25002315 -.01239816  00000+0 -55673-1 0  9995",
    "line2": "2 68594  51.8737 192.0053 0011288  14.0790  87.6673 15.23524642  4360"
  },
  {
    "name": "KUIPER-00296",
    "noradId": "68595",
    "line1": "1 68595U 26072Y   26165.29309971  .00025060  00000+0  66314-3 0  9995",
    "line2": "2 68595  51.8675 191.0076 0009978  13.6737 346.4519 15.38189193 10934"
  },
  {
    "name": "KUIPER-00297",
    "noradId": "68596",
    "line1": "1 68596U 26072Z   26164.82582081  .00001850  00000+0  29411-3 0  9997",
    "line2": "2 68596  51.8984 201.9851 0001518 102.5600 257.5530 14.76430278 10747"
  },
  {
    "name": "KUIPER-00300",
    "noradId": "68597",
    "line1": "1 68597U 26072AA  26165.25002315 -.00219765  00000+0 -30091-1 0  9995",
    "line2": "2 68597  51.9493 197.2099 0001606  73.1670  45.3029 14.79454312  5145"
  },
  {
    "name": "KUIPER-00301",
    "noradId": "68598",
    "line1": "1 68598U 26072AB  26164.77501548  .00024948  00000+0  66147-3 0  9992",
    "line2": "2 68598  51.8626 193.5039 0010314  14.3435 345.7843 15.38127599 10853"
  },
  {
    "name": "KUIPER-00304",
    "noradId": "68599",
    "line1": "1 68599U 26072AC  26165.23933218  .00032158  00000+0  85508-3 0  9992",
    "line2": "2 68599  51.8643 191.3727 0011554  16.5148 343.6213 15.37888042 10927"
  },
  {
    "name": "KUIPER-00317",
    "noradId": "68600",
    "line1": "1 68600U 26072AD  26165.25002315 -.01148576  00000+0 -56157-1 0  9993",
    "line2": "2 68600  51.8788 191.8393 0011052  13.0566 121.3332 15.20444832  1417"
  },
  {
    "name": "KUIPER-00320",
    "noradId": "68601",
    "line1": "1 68601U 26072AE  26165.25002315 -.00030566  00000+0 -25210-2 0  9999",
    "line2": "2 68601  51.8895 194.3790 0012817  19.1841 250.0633 14.98369333  5873"
  },
  {
    "name": "KUIPER-00299",
    "noradId": "68864",
    "line1": "1 68864U 26095A   26165.25002315  .00024184  00000+0  28506-2 0  9993",
    "line2": "2 68864  51.9001 261.6509 0008489 318.0387 101.4612 14.84605885  5164"
  },
  {
    "name": "KUIPER-00353",
    "noradId": "68865",
    "line1": "1 68865U 26095B   26164.55404770  .00056805  00000+0  15253-2 0  9997",
    "line2": "2 68865  51.8840 259.7171 0001463 323.8776  36.2112 15.37383552  7175"
  },
  {
    "name": "KUIPER-00357",
    "noradId": "68866",
    "line1": "1 68866U 26095C   26165.25002315 -.01172075  00000+0 -77497-1 0  9993",
    "line2": "2 68866  51.8910 257.8222 0002691  23.5799 251.4962 15.10025759  4863"
  },
  {
    "name": "KUIPER-00364",
    "noradId": "68867",
    "line1": "1 68867U 26095D   26165.25002315 -.01857566  00000+0 -15929+0 0  9999",
    "line2": "2 68867  51.8914 259.0935 0002588  32.9216 345.4333 15.00900020  4404"
  },
  {
    "name": "KUIPER-00375",
    "noradId": "68868",
    "line1": "1 68868U 26095E   26165.25002315 -.01039108  00000+0 -32923-1 0  9999",
    "line2": "2 68868  51.8844 256.3819 0001613 325.7872 276.1806 15.34846545  5063"
  },
  {
    "name": "KUIPER-00433",
    "noradId": "68869",
    "line1": "1 68869U 26095F   26161.03709509  .00002009  00000+0  30621-3 0  9993",
    "line2": "2 68869  51.9005 284.7606 0001990  78.6103 281.5082 14.77935609  6526"
  },
  {
    "name": "KUIPER-00437",
    "noradId": "68870",
    "line1": "1 68870U 26095G   26164.97333475  .00025463  00000+0  68121-3 0  9991",
    "line2": "2 68870  51.8803 258.0094 0007372 299.8629  60.1625 15.37863723  7235"
  },
  {
    "name": "KUIPER-00448",
    "noradId": "68871",
    "line1": "1 68871U 26095H   26165.25002315 -.00793781  00000+0 -35822-1 0  9997",
    "line2": "2 68871  51.8881 257.2757 0002831 318.2761 170.5891 15.23122193  4194"
  },
  {
    "name": "KUIPER-00459",
    "noradId": "68872",
    "line1": "1 68872U 26095J   26164.56399684  .00007574  00000+0  23255-3 0  9994",
    "line2": "2 68872  51.8706 260.4670 0010299 300.1013  59.8951 15.34690398  7163"
  },
  {
    "name": "KUIPER-00468",
    "noradId": "68873",
    "line1": "1 68873U 26095K   26164.56859810  .00023581  00000+0  63756-3 0  9993",
    "line2": "2 68873  51.8830 259.8091 0003673 274.3062  85.7506 15.37599750  7173"
  },
  {
    "name": "KUIPER-00476",
    "noradId": "68874",
    "line1": "1 68874U 26095L   26164.55313088  .00018093  00000+0  52152-3 0  9995",
    "line2": "2 68874  51.8738 260.4120 0007980 294.2820  65.7332 15.35757649  7165"
  },
  {
    "name": "KUIPER-00478",
    "noradId": "68875",
    "line1": "1 68875U 26095M   26164.98136641  .00040824  00000+0  10878-2 0  9996",
    "line2": "2 68875  51.8782 258.0534 0008006 305.1593  54.8643 15.37740982  7232"
  },
  {
    "name": "KUIPER-00480",
    "noradId": "68876",
    "line1": "1 68876U 26095N   26164.96704252  .00027665  00000+0  73416-3 0  9990",
    "line2": "2 68876  51.8771 257.9596 0005993 293.4209  66.6148 15.38074145  7235"
  },
  {
    "name": "KUIPER-00482",
    "noradId": "68877",
    "line1": "1 68877U 26095P   26165.00002315 -.01270363  00000+0 -49540-1 0  9995",
    "line2": "2 68877  51.8873 257.9403 0001639 331.9955 159.1623 15.28349823  5247"
  },
  {
    "name": "KUIPER-00483",
    "noradId": "68878",
    "line1": "1 68878U 26095Q   26164.55769122  .00002131  00000+0  33277-3 0  9996",
    "line2": "2 68878  51.8993 268.2266 0002416 129.8427 230.2747 14.76606885  7050"
  },
  {
    "name": "KUIPER-00488",
    "noradId": "68879",
    "line1": "1 68879U 26095R   26164.95227877  .00022682  00000+0  64866-3 0  9998",
    "line2": "2 68879  51.8663 258.5546 0011765 311.6187  48.3791 15.35817391  7227"
  },
  {
    "name": "KUIPER-00489",
    "noradId": "68880",
    "line1": "1 68880U 26095S   26164.55207014 -.00033917  00000+0 -94744-3 0  9990",
    "line2": "2 68880  51.8749 260.4100 0010814 303.9232  56.0725 15.35894423  7168"
  },
  {
    "name": "KUIPER-00499",
    "noradId": "68881",
    "line1": "1 68881U 26095T   26164.95950742  .00016307  00000+0  48719-3 0  9991",
    "line2": "2 68881  51.8696 258.6136 0007247 300.3928  59.6341 15.34711802  7225"
  },
  {
    "name": "KUIPER-00500",
    "noradId": "68882",
    "line1": "1 68882U 26095U   26165.25002315  .00024616  00000+0  32369-2 0  9995",
    "line2": "2 68882  51.9010 263.6412 0001720 216.8975  81.5739 14.80053244  3380"
  },
  {
    "name": "KUIPER-00502",
    "noradId": "68883",
    "line1": "1 68883U 26095V   26164.96026562  .00019862  00000+0  52770-3 0  9999",
    "line2": "2 68883  51.8805 257.9248 0005815 297.8451  62.1947 15.38242288  7238"
  }
]